#aV2008  7 29  0  0   .00000000      96 DD+AD WGS84 FIT  NGA
## 1490 172800.00000000   900.00000000 54676  .0000000000000
+   31     2  3  4  5  6  7  8  9 10 11 12 13 14 15 16 17 18
+         19 20 21 22 23 24 25 26 27 28 29 30 31 32  0  0  0
+          0  0  0  0  0  0  0  0  0  0  0  0  0  0  0  0  0
+          0  0  0  0  0  0  0  0  0  0  0  0  0  0  0  0  0
+          0  0  0  0  0  0  0  0  0  0  0  0  0  0  0  0  0
++         0  0  0  0  0  0  0  0  0  0  0  0  0  0  0  0  0
++         0  0  0  0  0  0  0  0  0  0  0  0  0  0  0  0  0
++         0  0  0  0  0  0  0  0  0  0  0  0  0  0  0  0  0
++         0  0  0  0  0  0  0  0  0  0  0  0  0  0  0  0  0
++         0  0  0  0  0  0  0  0  0  0  0  0  0  0  0  0  0
%c cc cc ccc ccc cccc cccc cccc cccc ccccc ccccc ccccc ccccc
%c cc cc ccc ccc cccc cccc cccc cccc ccccc ccccc ccccc ccccc
%f  0.0000000  0.000000000  0.00000000000  0.000000000000000
%f  0.0000000  0.000000000  0.00000000000  0.000000000000000
%i    0    0    0    0      0      0      0      0         0
%i    0    0    0    0      0      0      0      0         0
/*      NGA, ST. LOUIS,MO.                                  
/*   EPHEMERIS COMPUTED FROM  3 DAYS OF DATA                
/* CCCCCCCCCCCCCCCCCCCCCCCCCCCCCCCCCCCCCCCCCCCCCCCCCCCCCCCCC
/* CCCCCCCCCCCCCCCCCCCCCCCCCCCCCCCCCCCCCCCCCCCCCCCCCCCCCCCCC
*  2008  7 29  4  0   .00000000                                                 
P  2 -10468.799212 -21571.488793  11667.877603    198.765836                    
V  2  12654.245869   8366.071662  26129.459341      -.026661                    
P  3   6094.852198  14892.727045 -21395.621305    262.138020                    
V  3 -24785.401594   9920.739236    201.500539       .051252                    
P  4   1178.793956 -18248.882104  19032.923014   -127.789626                    
V  4  18770.036888  15951.293347  14419.685933      -.101498                    
P  5 -15110.777124  -3351.069830  21304.818686   -351.414427                    
V  5   4271.113756 -27453.437778  -1134.137164      -.246254                    
P  6    -60.597308  16261.537642 -20808.473788    164.538731                    
V  6 -25821.452640   7830.747836   6124.418735       .024090                    
P  7  19300.416830    946.132044 -18290.480023      2.062116                    
V  7  15635.247715  17099.288673  17328.414125       .048067                    
P  8  11038.997321  -9772.306513 -22177.710423   -163.679215                    
V  8  19127.914030  20294.873709    111.885496      -.015725                    
P  9 -21540.901409 -14505.949667   5264.139109      7.451812                    
V  9  -3974.010118  -6759.831694 -30975.065093       .016925                    
P 10  -2557.992742 -23238.609810 -12426.280003     -3.332629                    
V 10   6537.249837 -14465.302619  26309.227924      -.004323                    
P 11  24121.801407   9651.029551   6133.354705     22.579024                    
V 11   4282.896833   8140.556297 -28566.125138      -.006137                    
P 12 -13059.953920  -8940.211475  21424.480684   -355.984887                    
V 12   7067.824296 -26047.529861  -6488.039709       .009120                    
P 13  25870.588439  -5981.942569    171.090065    265.617979                    
V 13     40.480275   1756.067591  32510.081996       .014081                    
P 14 -16147.262175  14508.131447  15331.028713   -238.659204                    
V 14 -19027.777837   3370.797436 -23490.873757       .044487                    
P 15 -15557.602597  -9503.432288 -19297.152906   -150.684272                    
V 15  23132.114832  -8354.119045 -14506.302998      -.064220                    
P 16  -1676.426168  25376.707803  -7209.187305    114.820647                    
V 16  -4999.068152   8272.406745  30215.663105      -.017966                    
P 17  15235.494234 -15334.121005  15368.907197     38.781878                    
V 17  19372.582670  -3102.299894 -22524.624791       .001267                    
P 18 -16155.562888  11871.433522 -17042.328991   -151.107132                    
V 18   3956.026162 -21956.548185 -19199.600537       .042522                    
P 19  16222.376431   9899.990751 -18552.232050     34.109260                    
V 19 -22851.165263   6338.205632 -16328.412335       .004388                    
P 20  14208.605863   6694.441862  21307.772533    108.890666                    
V 20  -6515.163766  26588.786805  -3956.550118      -.008369                    
P 21 -16948.491879   3854.917628 -20029.320119     56.404980                    
V 21 -17457.450236 -19053.920908  10378.838862      -.013563                    
P 22 -11646.704743  22870.575488  -6551.111765    211.488935                    
V 22   -709.135667  -9125.159457 -29938.052002       .000934                    
P 23  24160.501381   1110.390433  11208.289259    366.544223                    
V 23 -13148.364969   5767.611196  27353.282604       .017483                    
P 24 -21141.731578  -9581.087859 -12491.912941    112.963080                    
V 24  -9080.271966 -13755.255611  25850.741956       .028058                    
P 25  22119.376713   6327.295524 -12759.526113   -205.092791                    
V 25  11683.329379  12359.794119  25844.413215      -.117172                    
P 26 -11214.941967 -11797.771806 -21594.297139    300.670828                    
V 26  25316.272117  -6208.102418  -9469.187481       .065071                    
P 27  17874.812928  -1786.104887 -18936.105677    206.138282                    
V 27  18474.927995  17518.250468  15128.990097       .027992                    
P 28  11792.174031 -22136.014149  -7821.292332    -21.450442                    
V 28    -65.092524  10928.984714 -29899.010023      -.003450                    
P 29 -25960.221174   4096.737690   3830.697493    -40.870817                    
V 29   3843.076571  -3947.055296  31254.080192       .005259                    
P 30 -15877.763444   6742.809139  19821.259710     88.324839                    
V 30   3978.868725 -25734.174272  11832.861946       .019257                    
P 31   1490.533876  19095.919698  18555.296161    -24.980793                    
V 31 -17687.263333 -15025.725647  17176.799794      -.000978                    
P 32   9653.748042  14863.586610  20271.355459    310.285671                    
V 32  -8785.667640  23112.254605 -12871.141879       .023860                    
EOF
